GALAXY 37 (G-37)        
1 57493U 23112A   26201.59317865  .00000047  00000+0  00000+0 0  9991
2 57493   0.0202  57.4932 0002043  59.4893 267.9196  1.00272474 10874
LUDI TANCE-4 01A        
1 57624U 23120A   26200.93101191 -.00000178  00000+0  00000+0 0  9992
2 57624  15.0837 193.1551 0001652  11.3795 157.9203  1.00275287 10870
TJS-10                  
1 58204U 23169A   26201.70793352 -.00000252  00000+0  00000+0 0  9995
2 58204   2.6287  80.0907 0004103 112.4238  93.2304  1.00272677  9876
ZHONGXING-6E            
1 58253U 23172A   26200.35779580 -.00000366  00000+0  00000+0 0  9996
2 58253   0.0313  91.9638 0002926  19.0453  70.4510  1.00269836  9987
YAOGAN-41               
1 58582U 23197A   26201.92778701 -.00000359  00000+0  00000+0 0  9998
2 58582   3.0681 313.6811 0014042 200.3464 241.8243  1.00274834  9665
OVZON-3                 
1 58698U 24003A   26201.90524949  .00000052  00000+0  00000+0 0  9993
2 58698   0.0213 152.3775 0000417 227.9735 303.8898  1.00272472  7787
INSAT-3DS               
1 58990U 24033A   26201.84843096 -.00000156  00000+0  00000+0 0  9997
2 58990   0.0760 263.7096 0001293 220.1689 202.2239  1.00270778 47409
MERAH PUTIH 2           
1 58995U 24035A   26201.92579367  .00000000  00000+0  00000+0 0  9997
2 58995   0.0216  67.1360 0001316  47.7179 270.0859  1.00269304  8921
TJS-11                  
1 59020U 24037A   26200.69295683 -.00000366  00000+0  00000+0 0  9994
2 59020   4.1569 327.4956 0001984 154.9321 177.0954  1.00272166  8901
HULIANWAN GAOGUI-01 (H*)
1 59069U 24040A   26201.97292642  .00000156  00000+0  00000+0 0  9991
2 59069   0.0756 332.1625 0001867  77.3132 273.1617  1.00273220  7669
EUTELSAT 36D            
1 59346U 24059A   26201.83930367  .00000000  00000+0  00000+0 0  9995
2 59346   0.0203  59.3621 0000128   5.2318 212.0320  1.00268726  8482
PAKSAT-MM1              
1 59915U 24104A   26201.48332905  .00000152  00000+0  00000+0 0  9991
2 59915   0.0294 162.8141 0002261 299.3240  48.3159  1.00275782  7862
ASTRA 1P (SES-24)       
1 60086U 24115A   26201.69337293  .00000119  00000+0  00000+0 0  9995
2 60086   0.0678 328.5828 0000781 227.2643  11.4291  1.00270935  7531
GOES 19                 
1 60133U 24119A   26201.88855780 -.00000248  00000+0  00000+0 0  9993
2 60133   0.0192 136.3883 0000287  44.1686   2.7835  1.00272515  7303
ZHONGXING-3A            
1 60179U 24122A   26201.85233097 -.00000313  00000+0  00000+0 0  9998
2 60179   0.0300 144.9475 0002058  18.1788 183.9070  1.00270886  7647
TURKSAT 6A              
1 60233U 24127A   26201.91175360  .00000146  00000+0  00000+0 0  9992
2 60233   0.0439 222.1637 0003106 305.0276 141.6859  1.00273679  7352
HULIANWAN GAOGUI-02 (H*)
1 60327U 24135A   26201.86238435 -.00000175  00000+0  00000+0 0  9995
2 60327   0.0480 354.6614 0006212  15.5784  31.8792  1.00269958  7830
ZHONGXING-4A            
1 60606U 24151A   26201.96506128 -.00000361  00000+0  00000+0 0  9998
2 60606   1.2285 270.4247 0000038   2.2038 131.7456  1.00272860  7099
HULIANWAN GAOGUI-03 (H*)
1 61503U 24181A   26201.88821113 -.00000241  00000+0  00000+0 0  9990
2 61503   0.0528 356.9894 0001300  94.0950  90.1652  1.00267203  7165
DSN-3 (KIRAMEKI-3)      
1 61733U 24198A   26201.93203370 -.00000250  00000+0  00000+0 0  9998
2 61733   0.0377 239.1022 0001113 260.5232 278.6666  1.00271148  6252
KOREASAT 6A             
1 61910U 24206A   26201.91670052 -.00000362  00000+0  00000+0 0  9992
2 61910   0.0272 102.2588 0001044 340.3721 302.0789  1.00272780  6175
OPTUS-X (ADS-01)        
1 62006U 24212A   26201.86316436 -.00000144  00000+0  00000+0 0  9991
2 62006   0.0019 345.3047 0002310 152.9904 267.4767  1.00271785  6093
GSAT-N2 (GSAT-20)       
1 62028U 24214A   26201.91695362 -.00000019  00000+0  00000+0 0  9992
2 62028   0.0598 259.7943 0002706 151.4330 285.4917  1.00272607  6235
SXM-9                   
1 62259U 24234A   26201.88656446 -.00000205  00000+0  00000+0 0  9993
2 62259   0.0211 327.9759 0004745 353.1410 211.5313  1.00271455  5915
TJS-12                  
1 62374U 24246A   26201.93246704 -.00000232  00000+0  00000+0 0  9992
2 62374   0.5991 302.7833 0001932 103.4366  14.6263  1.00268179  5902
NUVIEW ALPHA            
1 62455U 24252B   26201.88699780 -.00000215  00000+0  00000+0 0  9990
2 62455   0.0404  21.0500 0001304  72.2258  81.6006  1.00271848  4167
AGILA                   
1 62456U 24252C   26201.86229769 -.00000182  00000+0  00000+0 0  9998
2 62456   0.0380 147.1606 0001448 334.4724 279.5863  1.00271354  5496
NUVIEW BRAVO            
1 62457U 24252D   26201.88699780 -.00000215  00000+0  00000+0 0  9992
2 62457   0.0675 166.2685 0001774 338.3260  30.2713  1.00272391  4131
THURAYA-4               
1 62483U 25001A   26201.91227361  .00000139  00000+0  00000+0 0  9994
2 62483   0.0224  77.8788 0000099 356.9262 236.6071  1.00273328  4510
SHIJIAN-25 (SJ-25)      
1 62485U 25002A   26201.68125779 -.00000354  00000+0  00000+0 0  9991
2 62485   5.1911  60.9512 0050815 176.6989  73.1922  1.00277224  5691
TJS-14                  
1 62804U 25017A   26201.91972834  .00000115  00000+0  00000+0 0  9994
2 62804   0.7082 298.2241 0001871 304.0458  45.8799  1.00270130  5605
