OBJECT_NAME,OBJECT_ID,EPOCH,MEAN_MOTION,ECCENTRICITY,INCLINATION,RA_OF_ASC_NODE,ARG_OF_PERICENTER,MEAN_ANOMALY,EPHEMERIS_TYPE,CLASSIFICATION_TYPE,NORAD_CAT_ID,ELEMENT_SET_NO,REV_AT_EPOCH,BSTAR,MEAN_MOTION_DOT,MEAN_MOTION_DDOT
GALAXY 37 (G-37),2023-112A,2026-07-20T14:14:10.635360,1.00272474,.00020439,0.0202,57.4932,59.4893,267.9196,0,U,57493,999,1087,0,.47E-6,0
LUDI TANCE-4 01A,2023-120A,2026-07-19T22:20:39.429024,1.00275287,.00016523,15.0837,193.1551,11.3795,157.9203,0,U,57624,999,1087,0,-.178E-5,0
TJS-10,2023-169A,2026-07-20T16:59:25.456128,1.00272677,.0004103,2.6287,80.0907,112.4238,93.2304,0,U,58204,999,987,0,-.252E-5,0
ZHONGXING-6E,2023-172A,2026-07-19T08:35:13.557120,1.00269836,.00029267,0.0313,91.9638,19.0453,70.4510,0,U,58253,999,998,0,-.366E-5,0
YAOGAN-41,2023-197A,2026-07-20T22:16:00.797664,1.00274834,.00140429,3.0681,313.6811,200.3464,241.8243,0,U,58582,999,966,0,-.359E-5,0
OVZON-3,2024-003A,2026-07-20T21:43:33.555936,1.00272472,.00004179,0.0213,152.3775,227.9735,303.8898,0,U,58698,999,778,0,.52E-6,0
INSAT-3DS,2024-033A,2026-07-20T20:21:44.434944,1.00270778,.00012938,0.0760,263.7096,220.1689,202.2239,0,U,58990,999,4740,0,-.156E-5,0
MERAH PUTIH 2,2024-035A,2026-07-20T22:13:08.573088,1.00269304,.00013167,0.0216,67.1360,47.7179,270.0859,0,U,58995,999,892,0,0,0
TJS-11,2024-037A,2026-07-19T16:37:51.470112,1.00272166,.0001984,4.1569,327.4956,154.9321,177.0954,0,U,59020,999,890,0,-.366E-5,0
HULIANWAN GAOGUI-01 (HG-01),2024-040A,2026-07-20T23:21:00.842688,1.00273220,.00018676,0.0756,332.1625,77.3132,273.1617,0,U,59069,999,766,0,.156E-5,0
EUTELSAT 36D,2024-059A,2026-07-20T20:08:35.837088,1.00268726,.00001286,0.0203,59.3621,5.2318,212.0320,0,U,59346,999,848,0,0,0
PAKSAT-MM1,2024-104A,2026-07-20T11:35:59.629920,1.00275782,.0002261,0.0294,162.8141,299.3240,48.3159,0,U,59915,999,786,0,.152E-5,0
ASTRA 1P (SES-24),2024-115A,2026-07-20T16:38:27.421152,1.00270935,.00007818,0.0678,328.5828,227.2643,11.4291,0,U,60086,999,753,0,.119E-5,0
GOES 19,2024-119A,2026-07-20T21:19:31.393920,1.00272515,.00002871,0.0192,136.3883,44.1686,2.7835,0,U,60133,999,730,0,-.248E-5,0
ZHONGXING-3A,2024-122A,2026-07-20T20:27:21.395808,1.00270886,.0002058,0.0300,144.9475,18.1788,183.9070,0,U,60179,999,764,0,-.313E-5,0
TURKSAT 6A,2024-127A,2026-07-20T21:52:55.511040,1.00273679,.0003106,0.0439,222.1637,305.0276,141.6859,0,U,60233,999,735,0,.146E-5,0
HULIANWAN GAOGUI-02 (HG-02),2024-135A,2026-07-20T20:41:50.007840,1.00269958,.00062129,0.0480,354.6614,15.5784,31.8792,0,U,60327,999,783,0,-.175E-5,0
ZHONGXING-4A,2024-151A,2026-07-20T23:09:41.294592,1.00272860,.00000384,1.2285,270.4247,2.2038,131.7456,0,U,60606,999,709,0,-.361E-5,0
HULIANWAN GAOGUI-03 (HG-03),2024-181A,2026-07-20T21:19:01.441632,1.00267203,.00013005,0.0528,356.9894,94.0950,90.1652,0,U,61503,999,716,0,-.241E-5,0
DSN-3 (KIRAMEKI-3),2024-198A,2026-07-20T22:22:07.711680,1.00271148,.00011133,0.0377,239.1022,260.5232,278.6666,0,U,61733,999,625,0,-.25E-5,0
KOREASAT 6A,2024-206A,2026-07-20T22:00:02.924928,1.00272780,.00010446,0.0272,102.2588,340.3721,302.0789,0,U,61910,999,617,0,-.362E-5,0
OPTUS-X (ADS-01),2024-212A,2026-07-20T20:42:57.400704,1.00271785,.00023104,0.0019,345.3047,152.9904,267.4767,0,U,62006,999,609,0,-.144E-5,0
GSAT-N2 (GSAT-20),2024-214A,2026-07-20T22:00:24.792768,1.00272607,.00027065,0.0598,259.7943,151.4330,285.4917,0,U,62028,999,623,0,-.19E-6,0
SXM-9,2024-234A,2026-07-20T21:16:39.169344,1.00271455,.00047451,0.0211,327.9759,353.1410,211.5313,0,U,62259,999,591,0,-.205E-5,0
TJS-12,2024-246A,2026-07-20T22:22:45.152256,1.00268179,.00019326,0.5991,302.7833,103.4366,14.6263,0,U,62374,999,590,0,-.232E-5,0
NUVIEW ALPHA,2024-252B,2026-07-20T21:17:16.609920,1.00271848,.00013041,0.0404,21.0500,72.2258,81.6006,0,U,62455,999,416,0,-.215E-5,0
AGILA,2024-252C,2026-07-20T20:41:42.520416,1.00271354,.00014489,0.0380,147.1606,334.4724,279.5863,0,U,62456,999,549,0,-.182E-5,0
NUVIEW BRAVO,2024-252D,2026-07-20T21:17:16.609920,1.00272391,.00017748,0.0675,166.2685,338.3260,30.2713,0,U,62457,999,413,0,-.215E-5,0
THURAYA-4,2025-001A,2026-07-20T21:53:40.439904,1.00273328,.00000998,0.0224,77.8788,356.9262,236.6071,0,U,62483,999,451,0,.139E-5,0
SHIJIAN-25 (SJ-25),2025-002A,2026-07-20T16:21:00.673056,1.00277224,.0050815,5.1911,60.9512,176.6989,73.1922,0,U,62485,999,569,0,-.354E-5,0
TJS-14,2025-017A,2026-07-20T22:04:24.528576,1.00270130,.00018711,0.7082,298.2241,304.0458,45.8799,0,U,62804,999,560,0,.115E-5,0
